{"type":"FeatureCollection","features":[{"type":"Feature","geometry":{"coordinates":[[[2.34503,48.80543],[2.34435,48.80452],[2.34387,48.80325],[2.34637,48.80232],[2.34781,48.80153],[2.34606,48.79963],[2.34773,48.79902],[2.34703,48.79828],[2.34525,48.79777],[2.34523,48.7969],[2.34381,48.79766],[2.34103,48.79889],[2.34,48.7973],[2.33756,48.7981],[2.33376,48.79852],[2.33292,48.79942],[2.32815,48.79975],[2.3274,48.80043],[2.32394,48.80155],[2.32598,48.80673],[2.32636,48.8083],[2.32525,48.80842],[2.32434,48.80669],[2.32444,48.80582],[2.32399,48.80536],[2.32174,48.80595],[2.32041,48.80613],[2.31834,48.80602],[2.31786,48.8084],[2.31908,48.81001],[2.32189,48.80974],[2.32556,48.80958],[2.32906,48.81378],[2.33206,48.81322],[2.33414,48.81265],[2.33462,48.81355],[2.33735,48.8136],[2.34026,48.81242],[2.33906,48.81087],[2.3423,48.80961],[2.34197,48.80863],[2.34342,48.80829],[2.34261,48.80662],[2.34503,48.80543]]],"type":"Polygon"},"properties":{"code":"94003","nom":"Arcueil","obs":16.0,"att":13.1,"ratio":1.22,"ic_bas":0.7,"ic_haut":1.98,"signif":"ns","exces":22.0,"pop80":867.0,"pauv":19.0}},{"type":"Feature","geometry":{"coordinates":[[[2.41634,48.84923],[2.419,48.84939],[2.41863,48.84639],[2.42822,48.84554],[2.42832,48.84517],[2.42758,48.84157],[2.42435,48.84195],[2.42349,48.84266],[2.42244,48.84406],[2.42185,48.84444],[2.41986,48.84346],[2.41936,48.8425],[2.41954,48.84145],[2.42039,48.84044],[2.42106,48.83889],[2.42148,48.8371],[2.42214,48.8358],[2.41734,48.83419],[2.41547,48.83379],[2.41351,48.83372],[2.41147,48.83393],[2.41225,48.83454],[2.41405,48.83976],[2.41566,48.845],[2.41635,48.8487],[2.41634,48.84923]]],"type":"Polygon"},"properties":{"code":"94067","nom":"Saint-Mandé","obs":20.0,"att":22.4,"ratio":0.89,"ic_bas":0.55,"ic_haut":1.38,"signif":"ns","exces":-11.0,"pop80":1440.0,"pauv":7.9}},{"type":"Feature","geometry":{"coordinates":[[[2.32394,48.80155],[2.3274,48.80043],[2.32815,48.79975],[2.33292,48.79942],[2.33376,48.79852],[2.33756,48.7981],[2.34,48.7973],[2.34103,48.79889],[2.34381,48.79766],[2.34473,48.79608],[2.34496,48.79428],[2.34422,48.79073],[2.34363,48.79106],[2.34307,48.78832],[2.34241,48.7871],[2.34133,48.78447],[2.34091,48.78392],[2.33951,48.78426],[2.33859,48.78272],[2.3355,48.78337],[2.33585,48.78382],[2.33366,48.78437],[2.32943,48.7845],[2.32838,48.78444],[2.32764,48.78205],[2.32581,48.78191],[2.32444,48.78224],[2.32437,48.78332],[2.32512,48.78632],[2.32208,48.78702],[2.3187,48.788],[2.32394,48.80155]]],"type":"Polygon"},"properties":{"code":"94016","nom":"Cachan","obs":26.0,"att":27.8,"ratio":0.94,"ic_bas":0.61,"ic_haut":1.37,"signif":"ns","exces":-6.0,"pop80":1574.0,"pauv":15.7}},{"type":"Feature","geometry":{"coordinates":[[[2.41976,48.81687],[2.41592,48.81625],[2.41358,48.8162],[2.4094,48.81656],[2.40812,48.81734],[2.40541,48.81813],[2.40019,48.81985],[2.39796,48.82069],[2.39552,48.822],[2.39007,48.82569],[2.39434,48.82754],[2.39571,48.82773],[2.39934,48.82867],[2.40224,48.82959],[2.40381,48.82906],[2.40515,48.8283],[2.40771,48.82635],[2.40996,48.82518],[2.41193,48.82479],[2.41598,48.82478],[2.41996,48.82408],[2.41964,48.81854],[2.41976,48.81687]]],"type":"Polygon"},"properties":{"code":"94018","nom":"Charenton-le-Pont","obs":23.0,"att":19.0,"ratio":1.21,"ic_bas":0.77,"ic_haut":1.82,"signif":"ns","exces":21.0,"pop80":1449.0,"pauv":9.8}},{"type":"Feature","geometry":{"coordinates":[[[2.4545,48.81334],[2.45545,48.81394],[2.45733,48.81301],[2.45818,48.81364],[2.4594,48.81269],[2.4655,48.81634],[2.46335,48.81708],[2.46121,48.81836],[2.4627,48.81906],[2.46287,48.82018],[2.46504,48.82408],[2.46573,48.82623],[2.46669,48.82614],[2.4669,48.82718],[2.46781,48.82849],[2.46948,48.83007],[2.4714,48.829],[2.4732,48.82991],[2.47569,48.83056],[2.47729,48.82748],[2.47801,48.82717],[2.47845,48.82496],[2.4791,48.82502],[2.47872,48.82353],[2.48174,48.82008],[2.48253,48.82],[2.48196,48.816],[2.4801,48.81348],[2.47376,48.81576],[2.47182,48.81377],[2.47099,48.81362],[2.46986,48.81243],[2.46615,48.81059],[2.46509,48.81047],[2.46533,48.81135],[2.46467,48.81176],[2.46059,48.80931],[2.4585,48.81018],[2.45588,48.81196],[2.4545,48.81334]]],"type":"Polygon"},"properties":{"code":"94042","nom":"Joinville-le-Pont","obs":18.0,"att":14.2,"ratio":1.27,"ic_bas":0.75,"ic_haut":2.0,"signif":"ns","exces":27.0,"pop80":994.0,"pauv":11.5}},{"type":"Feature","geometry":{"coordinates":[[[2.41469,48.77723],[2.41733,48.78073],[2.41968,48.78413],[2.42202,48.78791],[2.42267,48.78954],[2.42283,48.7911],[2.42248,48.79268],[2.42162,48.79448],[2.42074,48.79569],[2.41884,48.79734],[2.41559,48.79981],[2.41101,48.80374],[2.41005,48.80474],[2.40931,48.80607],[2.40892,48.80754],[2.40901,48.80852],[2.40997,48.8125],[2.41027,48.81454],[2.40997,48.81591],[2.4094,48.81656],[2.41358,48.8162],[2.41592,48.81625],[2.41805,48.81349],[2.41937,48.81226],[2.42245,48.80971],[2.4248,48.80633],[2.43392,48.78395],[2.43297,48.78374],[2.43092,48.78254],[2.43001,48.78231],[2.43004,48.78038],[2.42883,48.78018],[2.42825,48.7761],[2.41469,48.77723]]],"type":"Polygon"},"properties":{"code":"94002","nom":"Alfortville","obs":34.0,"att":26.5,"ratio":1.28,"ic_bas":0.89,"ic_haut":1.79,"signif":"ns","exces":28.0,"pop80":2061.0,"pauv":21.2}},{"type":"Feature","geometry":{"coordinates":[[[2.49299,48.75928],[2.49687,48.76091],[2.49976,48.76312],[2.50547,48.76111],[2.50596,48.76159],[2.50735,48.76172],[2.51053,48.76113],[2.5138,48.76094],[2.51669,48.76135],[2.52287,48.75752],[2.52649,48.75617],[2.53724,48.75448],[2.53895,48.75539],[2.5573,48.7546],[2.55727,48.75376],[2.55497,48.75367],[2.55117,48.75],[2.54913,48.75202],[2.54645,48.75196],[2.54347,48.74877],[2.55263,48.74682],[2.5446,48.73636],[2.53442,48.72951],[2.53652,48.72817],[2.53082,48.72739],[2.52245,48.73212],[2.5204,48.7344],[2.5118,48.74462],[2.5119,48.74519],[2.51044,48.7471],[2.50832,48.74556],[2.50454,48.74384],[2.5031,48.74544],[2.50264,48.74647],[2.50159,48.74621],[2.50155,48.74898],[2.50107,48.75069],[2.49921,48.75269],[2.49749,48.75427],[2.49299,48.75928]]],"type":"Polygon"},"properties":{"code":"94004","nom":"Boissy-Saint-Léger","obs":11.0,"att":9.5,"ratio":1.15,"ic_bas":0.57,"ic_haut":2.06,"signif":"ns","exces":15.0,"pop80":593.0,"pauv":19.3}},{"type":"Feature","geometry":{"coordinates":[[[2.4996,48.76298],[2.49687,48.76091],[2.49299,48.75928],[2.49054,48.75896],[2.48595,48.75761],[2.48346,48.75648],[2.47955,48.76047],[2.47672,48.75949],[2.47631,48.75997],[2.47387,48.76109],[2.4735,48.76173],[2.47715,48.76276],[2.47582,48.76395],[2.4749,48.76537],[2.47737,48.76612],[2.47401,48.77026],[2.47348,48.77009],[2.47202,48.77145],[2.47232,48.77184],[2.47157,48.77292],[2.4746,48.77458],[2.47276,48.7765],[2.47496,48.77765],[2.4726,48.77992],[2.47537,48.78142],[2.47616,48.78059],[2.47691,48.78101],[2.4759,48.78268],[2.47447,48.78371],[2.47388,48.78595],[2.47291,48.78721],[2.47463,48.78767],[2.4788,48.78602],[2.48635,48.7842],[2.49089,48.78404],[2.4932,48.78407],[2.49824,48.78466],[2.50039,48.7847],[2.50707,48.78416],[2.51023,48.78412],[2.51245,48.78479],[2.51218,48.7839],[2.51356,48.78391],[2.51365,48.783],[2.51206,48.78192],[2.50927,48.78104],[2.50743,48.78021],[2.50632,48.77999],[2.50566,48.77929],[2.50402,48.77851],[2.50234,48.77853],[2.50243,48.77701],[2.49798,48.77566],[2.49744,48.77307],[2.4979,48.7727],[2.49755,48.76908],[2.49545,48.76923],[2.49522,48.76782],[2.49411,48.76789],[2.49395,48.76669],[2.4947,48.76426],[2.49688,48.7646],[2.4996,48.76298]]],"type":"Polygon"},"properties":{"code":"94011","nom":"Bonneuil-sur-Marne","obs":22.0,"att":12.4,"ratio":1.77,"ic_bas":1.11,"ic_haut":2.69,"signif":"sup","exces":77.0,"pop80":888.0,"pauv":25.2}},{"type":"Feature","geometry":{"coordinates":[[[2.51351,48.85006],[2.51559,48.85129],[2.51903,48.84797],[2.52303,48.84891],[2.52466,48.84914],[2.52876,48.84358],[2.53455,48.84533],[2.53551,48.84367],[2.5356,48.84297],[2.53756,48.84146],[2.5375,48.84102],[2.53951,48.83981],[2.54081,48.83936],[2.53939,48.83893],[2.53667,48.83854],[2.5357,48.83827],[2.53649,48.83733],[2.53354,48.83563],[2.53524,48.83435],[2.53382,48.83261],[2.53363,48.83174],[2.5319,48.82924],[2.52649,48.82889],[2.52546,48.82726],[2.52498,48.82721],[2.52019,48.82965],[2.51869,48.82878],[2.51772,48.82936],[2.5156,48.82858],[2.51049,48.82765],[2.50748,48.82868],[2.50745,48.82913],[2.50507,48.82964],[2.50573,48.83026],[2.5083,48.83005],[2.5103,48.82947],[2.51175,48.82938],[2.51412,48.83024],[2.51657,48.83175],[2.51766,48.83413],[2.51767,48.83483],[2.51705,48.83622],[2.51626,48.83715],[2.51403,48.83863],[2.51327,48.83932],[2.51205,48.84251],[2.5113,48.84515],[2.51138,48.8469],[2.51211,48.84866],[2.51351,48.85006]]],"type":"Polygon"},"properties":{"code":"94015","nom":"Bry-sur-Marne","obs":14.0,"att":17.1,"ratio":0.82,"ic_bas":0.45,"ic_haut":1.38,"signif":"ns","exces":-18.0,"pop80":909.0,"pauv":8.6}},{"type":"Feature","geometry":{"coordinates":[[[2.49765,48.83081],[2.50507,48.82964],[2.50745,48.82913],[2.50748,48.82868],[2.51049,48.82765],[2.5156,48.82858],[2.51772,48.82936],[2.51869,48.82878],[2.52019,48.82965],[2.52498,48.82721],[2.52412,48.82709],[2.52407,48.82523],[2.52548,48.82479],[2.52593,48.82403],[2.52575,48.82297],[2.52497,48.82143],[2.52563,48.82114],[2.52957,48.82126],[2.53203,48.82],[2.5333,48.81837],[2.53448,48.81832],[2.53476,48.81708],[2.54028,48.8183],[2.54145,48.81888],[2.54264,48.81896],[2.54357,48.8195],[2.54491,48.81982],[2.54715,48.81992],[2.5486,48.81974],[2.55016,48.81866],[2.55337,48.81852],[2.55446,48.81821],[2.55579,48.81888],[2.55737,48.81877],[2.56225,48.81596],[2.56548,48.81397],[2.56481,48.8128],[2.56285,48.8117],[2.56206,48.8116],[2.55846,48.80776],[2.55849,48.80757],[2.55421,48.80809],[2.55379,48.80749],[2.55418,48.8064],[2.55401,48.80488],[2.55102,48.80317],[2.54725,48.80396],[2.54549,48.80491],[2.54513,48.80546],[2.54353,48.80627],[2.54329,48.80572],[2.53961,48.80606],[2.53592,48.80586],[2.53532,48.80632],[2.53308,48.80597],[2.5289,48.80616],[2.52881,48.80526],[2.52711,48.80517],[2.5268,48.80611],[2.52573,48.80714],[2.52504,48.80681],[2.52585,48.80588],[2.5262,48.80481],[2.52481,48.80473],[2.52233,48.80417],[2.52223,48.80446],[2.52001,48.80715],[2.51827,48.80828],[2.51636,48.80892],[2.5146,48.80929],[2.51107,48.80964],[2.50875,48.81022],[2.50328,48.81058],[2.49788,48.81041],[2.49562,48.81064],[2.49116,48.81146],[2.48618,48.81251],[2.48408,48.81268],[2.4801,48.81348],[2.48196,48.816],[2.48253,48.82],[2.48174,48.82008],[2.47872,48.82353],[2.4791,48.82502],[2.47845,48.82496],[2.47801,48.82717],[2.47729,48.82748],[2.47569,48.83056],[2.47761,48.8309],[2.48295,48.83152],[2.48478,48.83147],[2.487,48.83107],[2.4932,48.83105],[2.49765,48.83081]]],"type":"Polygon"},"properties":{"code":"94017","nom":"Champigny-sur-Marne","obs":51.0,"att":43.4,"ratio":1.18,"ic_bas":0.88,"ic_haut":1.54,"signif":"ns","exces":18.0,"pop80":3177.0,"pauv":21.4}},{"type":"Feature","geometry":{"coordinates":[[[2.55849,48.80757],[2.55976,48.80503],[2.55771,48.80475],[2.55809,48.80363],[2.56646,48.80516],[2.5692,48.80317],[2.57097,48.80212],[2.57124,48.79952],[2.57154,48.79888],[2.56744,48.79723],[2.56552,48.79657],[2.56162,48.79492],[2.55586,48.79235],[2.5554,48.79197],[2.55443,48.79265],[2.55575,48.79443],[2.55407,48.7947],[2.55342,48.79559],[2.55342,48.79825],[2.54738,48.79753],[2.54774,48.79647],[2.54676,48.79367],[2.54594,48.79066],[2.54443,48.79073],[2.54115,48.79127],[2.53903,48.79119],[2.53302,48.79212],[2.5326,48.79205],[2.53055,48.78679],[2.52875,48.78595],[2.52574,48.78357],[2.52489,48.78393],[2.52239,48.78203],[2.51989,48.78348],[2.51811,48.78472],[2.51793,48.78546],[2.517,48.78638],[2.51963,48.78806],[2.52077,48.78935],[2.52267,48.79269],[2.52348,48.79573],[2.52339,48.79756],[2.52307,48.79866],[2.52286,48.80231],[2.52233,48.80417],[2.52481,48.80473],[2.5262,48.80481],[2.52585,48.80588],[2.52504,48.80681],[2.52573,48.80714],[2.5268,48.80611],[2.52711,48.80517],[2.52881,48.80526],[2.5289,48.80616],[2.53308,48.80597],[2.53532,48.80632],[2.53592,48.80586],[2.53961,48.80606],[2.54329,48.80572],[2.54353,48.80627],[2.54513,48.80546],[2.54549,48.80491],[2.54725,48.80396],[2.55102,48.80317],[2.55401,48.80488],[2.55418,48.8064],[2.55379,48.80749],[2.55421,48.80809],[2.55849,48.80757]]],"type":"Polygon"},"properties":{"code":"94019","nom":"Chennevières-sur-Marne","obs":8.0,"att":8.2,"ratio":0.97,"ic_bas":0.42,"ic_haut":1.92,"signif":"ns","exces":-3.0,"pop80":875.0,"pauv":16.7}},{"type":"Feature","geometry":{"coordinates":[[[2.36864,48.75746],[2.36199,48.75694],[2.3619,48.75874],[2.3601,48.76056],[2.35857,48.75991],[2.35813,48.76037],[2.35548,48.75922],[2.35425,48.76047],[2.35097,48.75906],[2.35051,48.75951],[2.3481,48.75849],[2.34617,48.76042],[2.34493,48.75877],[2.34466,48.75735],[2.34393,48.75632],[2.34163,48.75737],[2.3428,48.75847],[2.34083,48.7592],[2.34012,48.75892],[2.33703,48.76003],[2.33525,48.76112],[2.33663,48.76181],[2.33821,48.76307],[2.33364,48.76468],[2.3327,48.76466],[2.33358,48.76569],[2.33588,48.77021],[2.33377,48.77078],[2.33586,48.77351],[2.33788,48.77339],[2.33885,48.7744],[2.34345,48.77348],[2.34277,48.77226],[2.34977,48.77115],[2.35184,48.77393],[2.35355,48.77315],[2.35474,48.77464],[2.35995,48.77688],[2.3623,48.77763],[2.36738,48.77943],[2.36864,48.75746]]],"type":"Polygon"},"properties":{"code":"94021","nom":"Chevilly-Larue","obs":17.0,"att":12.5,"ratio":1.36,"ic_bas":0.79,"ic_haut":2.17,"signif":"ns","exces":36.0,"pop80":977.0,"pauv":20.7}},{"type":"Feature","geometry":{"coordinates":[[[2.43549,48.76724],[2.43608,48.76666],[2.43708,48.76637],[2.43983,48.76469],[2.43851,48.76364],[2.44004,48.76276],[2.44217,48.76223],[2.4423,48.7618],[2.44142,48.76124],[2.4369,48.76239],[2.43415,48.76339],[2.42664,48.76052],[2.4285,48.75814],[2.42569,48.75713],[2.42579,48.75646],[2.42716,48.75494],[2.42782,48.75346],[2.42857,48.75258],[2.42853,48.75153],[2.42748,48.75094],[2.42458,48.75269],[2.42124,48.75062],[2.42015,48.74974],[2.41811,48.75289],[2.41376,48.75167],[2.41331,48.75247],[2.40606,48.75108],[2.40359,48.76018],[2.40317,48.76148],[2.39807,48.76586],[2.40387,48.76691],[2.3987,48.77481],[2.40033,48.77508],[2.40202,48.77296],[2.40581,48.77359],[2.40576,48.77385],[2.41187,48.77424],[2.41253,48.77547],[2.41469,48.77723],[2.42825,48.7761],[2.42729,48.77231],[2.42754,48.77083],[2.43249,48.77231],[2.43232,48.77102],[2.43053,48.77064],[2.43072,48.7693],[2.43195,48.76751],[2.43197,48.76679],[2.43359,48.76683],[2.43549,48.76724]]],"type":"Polygon"},"properties":{"code":"94022","nom":"Choisy-le-Roi","obs":26.0,"att":21.0,"ratio":1.24,"ic_bas":0.81,"ic_haut":1.81,"signif":"ns","exces":24.0,"pop80":1658.0,"pauv":23.0}},{"type":"Feature","geometry":{"coordinates":[[[2.33054,48.74825],[2.32843,48.75025],[2.32616,48.75145],[2.32405,48.75209],[2.32483,48.75053],[2.32267,48.74812],[2.32072,48.74876],[2.31931,48.74963],[2.31767,48.75014],[2.31704,48.75003],[2.31414,48.75134],[2.31235,48.75135],[2.31012,48.75219],[2.31163,48.75302],[2.31089,48.75376],[2.31146,48.75433],[2.30869,48.75541],[2.31271,48.75932],[2.31339,48.76016],[2.3131,48.76159],[2.31362,48.76229],[2.31438,48.76209],[2.31479,48.76384],[2.31528,48.76486],[2.3151,48.7657],[2.31588,48.76677],[2.3177,48.76637],[2.3185,48.76663],[2.32081,48.76645],[2.32184,48.76621],[2.3219,48.76449],[2.32385,48.76441],[2.3234,48.76666],[2.3247,48.76651],[2.33257,48.76457],[2.3327,48.76466],[2.33364,48.76468],[2.33821,48.76307],[2.33663,48.76181],[2.33525,48.76112],[2.33703,48.76003],[2.34012,48.75892],[2.34083,48.7592],[2.3428,48.75847],[2.34163,48.75737],[2.34393,48.75632],[2.34101,48.75314],[2.33984,48.75205],[2.33826,48.74941],[2.33734,48.74828],[2.33609,48.74759],[2.33417,48.74856],[2.33386,48.74834],[2.33216,48.74949],[2.33054,48.74825]]],"type":"Polygon"},"properties":{"code":"94034","nom":"Fresnes","obs":16.0,"att":14.0,"ratio":1.15,"ic_bas":0.66,"ic_haut":1.86,"signif":"ns","exces":15.0,"pop80":1158.0,"pauv":15.0}},{"type":"Feature","geometry":{"coordinates":[[[2.32906,48.81378],[2.3319,48.81701],[2.33371,48.81677],[2.34168,48.81633],[2.34301,48.81608],[2.34692,48.81602],[2.35239,48.81855],[2.35585,48.81592],[2.35623,48.81594],[2.35616,48.8156],[2.35464,48.81366],[2.35381,48.81303],[2.35069,48.81135],[2.34625,48.80679],[2.34503,48.80543],[2.34261,48.80662],[2.34342,48.80829],[2.34197,48.80863],[2.3423,48.80961],[2.33906,48.81087],[2.34026,48.81242],[2.33735,48.8136],[2.33462,48.81355],[2.33414,48.81265],[2.33206,48.81322],[2.32906,48.81378]]],"type":"Polygon"},"properties":{"code":"94037","nom":"Gentilly","obs":12.0,"att":11.3,"ratio":1.06,"ic_bas":0.55,"ic_haut":1.85,"signif":"ns","exces":6.0,"pop80":712.0,"pauv":20.0}},{"type":"Feature","geometry":{"coordinates":[[[2.36738,48.77943],[2.3623,48.77763],[2.35995,48.77688],[2.35474,48.77464],[2.35355,48.77315],[2.35184,48.77393],[2.34977,48.77115],[2.34277,48.77226],[2.34345,48.77348],[2.33885,48.7744],[2.33788,48.77339],[2.33586,48.77351],[2.33377,48.77078],[2.33588,48.77021],[2.33358,48.76569],[2.33257,48.76457],[2.3247,48.76651],[2.3234,48.76666],[2.32385,48.76441],[2.3219,48.76449],[2.32184,48.76621],[2.32081,48.76645],[2.3185,48.76663],[2.3177,48.76637],[2.31588,48.76677],[2.31992,48.77073],[2.32056,48.77144],[2.32172,48.77361],[2.32374,48.77658],[2.32503,48.77725],[2.32572,48.77708],[2.32662,48.77873],[2.32458,48.77907],[2.32581,48.78191],[2.32764,48.78205],[2.32838,48.78444],[2.32943,48.7845],[2.33366,48.78437],[2.33585,48.78382],[2.3355,48.78337],[2.33859,48.78272],[2.33951,48.78426],[2.34091,48.78392],[2.34133,48.78447],[2.34241,48.7871],[2.34307,48.78832],[2.34363,48.79106],[2.34625,48.78961],[2.34467,48.78546],[2.34783,48.78491],[2.34816,48.78397],[2.34754,48.78217],[2.34966,48.78181],[2.35054,48.78101],[2.35261,48.78101],[2.35304,48.78028],[2.35489,48.77876],[2.35786,48.77921],[2.35808,48.7787],[2.36477,48.78046],[2.36726,48.78089],[2.36738,48.77943]]],"type":"Polygon"},"properties":{"code":"94038","nom":"L'Haÿ-les-Roses","obs":31.0,"att":28.4,"ratio":1.09,"ic_bas":0.74,"ic_haut":1.55,"signif":"ns","exces":9.0,"pop80":2020.0,"pauv":16.2}},{"type":"Feature","geometry":{"coordinates":[[[2.46818,48.76237],[2.47212,48.76328],[2.4735,48.76173],[2.47387,48.76109],[2.47631,48.75997],[2.47672,48.75949],[2.47955,48.76047],[2.48346,48.75648],[2.48595,48.75761],[2.49054,48.75896],[2.49299,48.75928],[2.49749,48.75427],[2.49921,48.75269],[2.50107,48.75069],[2.50155,48.74898],[2.50159,48.74621],[2.50264,48.74647],[2.5031,48.74544],[2.50454,48.74384],[2.50832,48.74556],[2.51044,48.7471],[2.5119,48.74519],[2.5118,48.74462],[2.51693,48.73853],[2.51624,48.73825],[2.51497,48.73882],[2.50862,48.73694],[2.50856,48.73631],[2.51005,48.73479],[2.50919,48.73362],[2.5074,48.73299],[2.50766,48.73502],[2.50617,48.73588],[2.50395,48.73537],[2.48463,48.72925],[2.48301,48.73146],[2.48238,48.73281],[2.48098,48.73418],[2.47991,48.73494],[2.47777,48.73579],[2.47544,48.73835],[2.47341,48.73971],[2.47603,48.74096],[2.47349,48.74455],[2.4734,48.74516],[2.47363,48.74841],[2.47253,48.7525],[2.4678,48.75131],[2.46861,48.75625],[2.4688,48.76007],[2.46818,48.76237]]],"type":"Polygon"},"properties":{"code":"94044","nom":"Limeil-Brévannes","obs":20.0,"att":11.9,"ratio":1.68,"ic_bas":1.02,"ic_haut":2.59,"signif":"sup","exces":68.0,"pop80":1209.0,"pauv":16.6}},{"type":"Feature","geometry":{"coordinates":[[[2.4545,48.81334],[2.45588,48.81196],[2.4585,48.81018],[2.46059,48.80931],[2.46282,48.8082],[2.46401,48.80735],[2.46066,48.80606],[2.46032,48.80631],[2.45746,48.80511],[2.45672,48.8055],[2.45455,48.80596],[2.44994,48.80301],[2.44865,48.80382],[2.44697,48.80245],[2.44735,48.80226],[2.44576,48.80081],[2.44544,48.79971],[2.44397,48.79809],[2.44239,48.79591],[2.43984,48.79529],[2.44091,48.79352],[2.43677,48.79234],[2.43809,48.79079],[2.43908,48.78919],[2.43571,48.78824],[2.43603,48.787],[2.43283,48.78662],[2.4248,48.80633],[2.42245,48.80971],[2.41937,48.81226],[2.41805,48.81349],[2.41592,48.81625],[2.41976,48.81687],[2.42138,48.81677],[2.42369,48.81627],[2.42693,48.81658],[2.42878,48.8165],[2.43237,48.81612],[2.43404,48.81622],[2.43618,48.81675],[2.43806,48.81686],[2.44191,48.81625],[2.44814,48.81607],[2.45054,48.81586],[2.45201,48.81536],[2.4545,48.81334]]],"type":"Polygon"},"properties":{"code":"94046","nom":"Maisons-Alfort","obs":40.0,"att":38.4,"ratio":1.04,"ic_bas":0.74,"ic_haut":1.42,"signif":"ns","exces":4.0,"pop80":2837.0,"pauv":10.5}},{"type":"Feature","geometry":{"coordinates":[[[2.37022,48.72792],[2.36934,48.74613],[2.3745,48.74623],[2.3742,48.74846],[2.37669,48.74925],[2.3778,48.74929],[2.38206,48.7482],[2.38262,48.74912],[2.38401,48.74876],[2.38453,48.74967],[2.38566,48.74939],[2.38621,48.75031],[2.38938,48.74962],[2.38727,48.75285],[2.38872,48.75272],[2.39192,48.75175],[2.39323,48.75085],[2.39696,48.75199],[2.39904,48.7524],[2.39943,48.74966],[2.40398,48.75055],[2.40606,48.75108],[2.41331,48.75247],[2.41376,48.75167],[2.41811,48.75289],[2.42015,48.74974],[2.42124,48.75062],[2.42458,48.75269],[2.42748,48.75094],[2.43275,48.74812],[2.43505,48.74655],[2.43659,48.7451],[2.43285,48.74414],[2.42873,48.74343],[2.42815,48.74351],[2.42434,48.7427],[2.42369,48.74375],[2.42182,48.74328],[2.42105,48.74468],[2.41881,48.74437],[2.41905,48.74366],[2.4151,48.74302],[2.41478,48.74364],[2.40872,48.74221],[2.40707,48.74227],[2.40744,48.74161],[2.40572,48.74086],[2.40453,48.73977],[2.40211,48.73885],[2.40275,48.73799],[2.39944,48.73739],[2.39528,48.73738],[2.39112,48.7376],[2.39119,48.73732],[2.38838,48.737],[2.38904,48.7363],[2.38921,48.73446],[2.38791,48.73434],[2.38779,48.73273],[2.38511,48.73266],[2.38498,48.72987],[2.38234,48.72971],[2.38228,48.72923],[2.37978,48.7293],[2.37962,48.72808],[2.37584,48.72757],[2.37022,48.72792]]],"type":"Polygon"},"properties":{"code":"94054","nom":"Orly","obs":23.0,"att":16.2,"ratio":1.42,"ic_bas":0.9,"ic_haut":2.13,"signif":"ns","exces":42.0,"pop80":775.0,"pauv":23.6}},{"type":"Feature","geometry":{"coordinates":[[[2.53545,48.77704],[2.53803,48.77829],[2.53792,48.77875],[2.54073,48.78048],[2.5409,48.78096],[2.54474,48.78252],[2.54581,48.78228],[2.54769,48.7824],[2.54962,48.78232],[2.5511,48.78293],[2.55369,48.78328],[2.55465,48.78396],[2.55718,48.78634],[2.56194,48.78787],[2.56382,48.7855],[2.56369,48.7829],[2.56481,48.78055],[2.56654,48.7782],[2.56575,48.77732],[2.5669,48.77531],[2.56776,48.77459],[2.56998,48.77483],[2.57203,48.77434],[2.57314,48.77326],[2.57469,48.77326],[2.57493,48.77252],[2.57645,48.7727],[2.57656,48.77165],[2.57521,48.77144],[2.57366,48.77159],[2.5705,48.76916],[2.57167,48.76711],[2.56974,48.76635],[2.56805,48.76729],[2.56319,48.76356],[2.56172,48.76354],[2.55996,48.76575],[2.55926,48.76612],[2.55676,48.76428],[2.55035,48.76554],[2.54329,48.76521],[2.5421,48.76535],[2.54018,48.76597],[2.53942,48.7673],[2.53968,48.7681],[2.54049,48.76906],[2.54056,48.77068],[2.53909,48.77207],[2.5368,48.77326],[2.53545,48.77704]]],"type":"Polygon"},"properties":{"code":"94053","nom":"Noiseau","obs":6.0,"att":3.6,"ratio":1.68,"ic_bas":0.61,"ic_haut":3.65,"signif":"ns","exces":68.0,"pop80":211.0,"pauv":null}},{"type":"Feature","geometry":{"coordinates":[[[2.50507,48.82964],[2.49765,48.83081],[2.49531,48.83437],[2.4945,48.83646],[2.49383,48.84126],[2.4931,48.84376],[2.4914,48.84829],[2.4935,48.84873],[2.49362,48.85067],[2.49329,48.85169],[2.49577,48.85281],[2.4973,48.85499],[2.5,48.85574],[2.50323,48.85719],[2.50548,48.85721],[2.50666,48.85534],[2.50856,48.85342],[2.51141,48.85245],[2.51197,48.85253],[2.51346,48.85131],[2.51311,48.85033],[2.51351,48.85006],[2.51211,48.84866],[2.51138,48.8469],[2.5113,48.84515],[2.51205,48.84251],[2.51327,48.83932],[2.51403,48.83863],[2.51626,48.83715],[2.51705,48.83622],[2.51767,48.83483],[2.51766,48.83413],[2.51657,48.83175],[2.51412,48.83024],[2.51175,48.82938],[2.5103,48.82947],[2.5083,48.83005],[2.50573,48.83026],[2.50507,48.82964]]],"type":"Polygon"},"properties":{"code":"94058","nom":"Le Perreux-sur-Marne","obs":20.0,"att":25.3,"ratio":0.79,"ic_bas":0.48,"ic_haut":1.22,"signif":"ns","exces":-21.0,"pop80":1991.0,"pauv":8.3}},{"type":"Feature","geometry":{"coordinates":[[[2.56194,48.78787],[2.55718,48.78634],[2.55465,48.78396],[2.55369,48.78328],[2.5511,48.78293],[2.54962,48.78232],[2.54769,48.7824],[2.54581,48.78228],[2.54474,48.78252],[2.5409,48.78096],[2.54073,48.78048],[2.53792,48.77875],[2.53803,48.77829],[2.53545,48.77704],[2.53059,48.77684],[2.52941,48.7775],[2.52965,48.77803],[2.52759,48.77812],[2.52672,48.77706],[2.52372,48.77674],[2.52215,48.77694],[2.52026,48.77677],[2.5226,48.7796],[2.51974,48.78088],[2.51225,48.78092],[2.51508,48.78324],[2.51541,48.78382],[2.51638,48.78427],[2.51793,48.78546],[2.51811,48.78472],[2.51989,48.78348],[2.52239,48.78203],[2.52489,48.78393],[2.52574,48.78357],[2.52875,48.78595],[2.53055,48.78679],[2.5326,48.79205],[2.53302,48.79212],[2.53903,48.79119],[2.54115,48.79127],[2.54443,48.79073],[2.54594,48.79066],[2.54676,48.79367],[2.54774,48.79647],[2.54738,48.79753],[2.55342,48.79825],[2.55342,48.79559],[2.55407,48.7947],[2.55575,48.79443],[2.55443,48.79265],[2.55741,48.7906],[2.5607,48.78903],[2.56194,48.78787]]],"type":"Polygon"},"properties":{"code":"94055","nom":"Ormesson-sur-Marne","obs":10.0,"att":8.8,"ratio":1.13,"ic_bas":0.54,"ic_haut":2.08,"signif":"ns","exces":13.0,"pop80":617.0,"pauv":6.2}},{"type":"Feature","geometry":{"coordinates":[[[2.57154,48.79888],[2.57124,48.79952],[2.57097,48.80212],[2.5692,48.80317],[2.56646,48.80516],[2.55809,48.80363],[2.55771,48.80475],[2.55976,48.80503],[2.55849,48.80757],[2.55846,48.80776],[2.56206,48.8116],[2.56285,48.8117],[2.56481,48.8128],[2.56548,48.81397],[2.56225,48.81596],[2.55737,48.81877],[2.5579,48.8194],[2.55605,48.82091],[2.55968,48.82277],[2.56245,48.82143],[2.56382,48.82056],[2.56511,48.82033],[2.56729,48.81941],[2.56872,48.81796],[2.56958,48.81687],[2.56976,48.81522],[2.57173,48.81421],[2.57449,48.8137],[2.57416,48.81298],[2.57815,48.81198],[2.5811,48.8106],[2.58286,48.81009],[2.58716,48.80915],[2.59015,48.80879],[2.59178,48.80725],[2.59427,48.80666],[2.59647,48.80577],[2.5932,48.80016],[2.59219,48.79953],[2.59146,48.79737],[2.59102,48.79658],[2.58846,48.79322],[2.58622,48.79326],[2.58206,48.79411],[2.58196,48.79373],[2.57951,48.79392],[2.57697,48.79372],[2.576,48.79347],[2.57501,48.79549],[2.57224,48.79558],[2.5718,48.79655],[2.57154,48.79888]]],"type":"Polygon"},"properties":{"code":"94059","nom":"Le Plessis-Trévise","obs":15.0,"att":12.4,"ratio":1.21,"ic_bas":0.68,"ic_haut":2.0,"signif":"ns","exces":21.0,"pop80":929.0,"pauv":11.6}},{"type":"Feature","geometry":{"coordinates":[[[2.36864,48.75746],[2.36934,48.74613],[2.36289,48.74611],[2.36289,48.74405],[2.35915,48.74253],[2.35673,48.73813],[2.35389,48.73871],[2.34783,48.7415],[2.34757,48.74117],[2.34552,48.74166],[2.34451,48.74069],[2.34199,48.74034],[2.33892,48.7416],[2.33706,48.74219],[2.33779,48.74314],[2.33642,48.74384],[2.33639,48.74429],[2.33358,48.74683],[2.33054,48.74825],[2.33216,48.74949],[2.33386,48.74834],[2.33417,48.74856],[2.33609,48.74759],[2.33734,48.74828],[2.33826,48.74941],[2.33984,48.75205],[2.34101,48.75314],[2.34393,48.75632],[2.34466,48.75735],[2.34493,48.75877],[2.34617,48.76042],[2.3481,48.75849],[2.35051,48.75951],[2.35097,48.75906],[2.35425,48.76047],[2.35548,48.75922],[2.35813,48.76037],[2.35857,48.75991],[2.3601,48.76056],[2.3619,48.75874],[2.36199,48.75694],[2.36864,48.75746]]],"type":"Polygon"},"properties":{"code":"94065","nom":"Rungis","obs":3.0,"att":4.3,"ratio":0.7,"ic_bas":0.14,"ic_haut":2.04,"signif":"ns","exces":-30.0,"pop80":251.0,"pauv":5.9}},{"type":"Feature","geometry":{"coordinates":[[[2.59747,48.76064],[2.58733,48.76396],[2.58116,48.755],[2.57702,48.755],[2.57199,48.75722],[2.5729,48.75814],[2.56993,48.76067],[2.57021,48.76101],[2.57313,48.76082],[2.57626,48.75991],[2.57697,48.76097],[2.58079,48.76496],[2.57676,48.76611],[2.5773,48.76673],[2.57745,48.76772],[2.57605,48.76854],[2.57351,48.76784],[2.57167,48.76711],[2.5705,48.76916],[2.57366,48.77159],[2.57521,48.77144],[2.57656,48.77165],[2.57645,48.7727],[2.57493,48.77252],[2.57469,48.77326],[2.57314,48.77326],[2.57203,48.77434],[2.56998,48.77483],[2.56776,48.77459],[2.5669,48.77531],[2.56575,48.77732],[2.56654,48.7782],[2.56481,48.78055],[2.56369,48.7829],[2.56382,48.7855],[2.56194,48.78787],[2.5607,48.78903],[2.55741,48.7906],[2.5554,48.79197],[2.55586,48.79235],[2.56162,48.79492],[2.56552,48.79657],[2.56744,48.79723],[2.57154,48.79888],[2.5718,48.79655],[2.57224,48.79558],[2.57501,48.79549],[2.576,48.79347],[2.57697,48.79372],[2.57951,48.79392],[2.58196,48.79373],[2.58206,48.79411],[2.58622,48.79326],[2.58846,48.79322],[2.59102,48.79658],[2.59146,48.79737],[2.59291,48.7975],[2.59602,48.79689],[2.59989,48.79499],[2.59898,48.79282],[2.59784,48.79125],[2.59583,48.78981],[2.59685,48.78898],[2.59409,48.78821],[2.59509,48.7849],[2.59209,48.78528],[2.59173,48.784],[2.58999,48.78361],[2.5896,48.78317],[2.5883,48.78302],[2.58871,48.78166],[2.58869,48.78047],[2.5881,48.77849],[2.58545,48.77886],[2.58547,48.77707],[2.58607,48.77577],[2.58643,48.77425],[2.58726,48.77312],[2.58946,48.77112],[2.59042,48.77159],[2.59217,48.77107],[2.59532,48.77221],[2.59646,48.77222],[2.59805,48.77264],[2.59797,48.77324],[2.60085,48.77408],[2.60318,48.77444],[2.60463,48.77433],[2.60636,48.77476],[2.60717,48.77447],[2.60823,48.77277],[2.61145,48.77044],[2.61208,48.76967],[2.61288,48.76732],[2.61326,48.76568],[2.61502,48.76406],[2.61562,48.76288],[2.61557,48.76206],[2.61483,48.76111],[2.61365,48.76103],[2.61133,48.7612],[2.61159,48.76042],[2.60499,48.7591],[2.60274,48.75897],[2.59747,48.76064]]],"type":"Polygon"},"properties":{"code":"94060","nom":"La Queue-en-Brie","obs":3.0,"att":5.7,"ratio":0.52,"ic_bas":0.1,"ic_haut":1.53,"signif":"ns","exces":-48.0,"pop80":408.0,"pauv":10.8}},{"type":"Feature","geometry":{"coordinates":[[[2.46695,48.80526],[2.46282,48.8082],[2.46059,48.80931],[2.46467,48.81176],[2.46533,48.81135],[2.46509,48.81047],[2.46615,48.81059],[2.46986,48.81243],[2.47099,48.81362],[2.47182,48.81377],[2.47376,48.81576],[2.4801,48.81348],[2.48408,48.81268],[2.48618,48.81251],[2.49116,48.81146],[2.49562,48.81064],[2.49788,48.81041],[2.50328,48.81058],[2.50875,48.81022],[2.51107,48.80964],[2.5146,48.80929],[2.51636,48.80892],[2.51827,48.80828],[2.52001,48.80715],[2.52223,48.80446],[2.52286,48.80231],[2.52307,48.79866],[2.52339,48.79756],[2.52348,48.79573],[2.52267,48.79269],[2.52077,48.78935],[2.51963,48.78806],[2.517,48.78638],[2.51423,48.78588],[2.51245,48.78479],[2.51023,48.78412],[2.50707,48.78416],[2.50039,48.7847],[2.49824,48.78466],[2.4932,48.78407],[2.49089,48.78404],[2.48635,48.7842],[2.4788,48.78602],[2.47463,48.78767],[2.47238,48.79049],[2.47188,48.79167],[2.47179,48.79431],[2.4701,48.79957],[2.46894,48.80206],[2.46812,48.80457],[2.46695,48.80526]]],"type":"Polygon"},"properties":{"code":"94068","nom":"Saint-Maur-des-Fossés","obs":90.0,"att":72.3,"ratio":1.25,"ic_bas":1.0,"ic_haut":1.53,"signif":"sup","exces":24.0,"pop80":5417.0,"pauv":8.1}},{"type":"Feature","geometry":{"coordinates":[[[2.4545,48.81334],[2.45201,48.81536],[2.45054,48.81586],[2.44814,48.81607],[2.44191,48.81625],[2.43806,48.81686],[2.43618,48.81675],[2.43404,48.81622],[2.43237,48.81612],[2.42878,48.8165],[2.42693,48.81658],[2.42369,48.81627],[2.42138,48.81677],[2.41976,48.81687],[2.41964,48.81854],[2.41996,48.82408],[2.42513,48.82419],[2.42698,48.82405],[2.42923,48.82362],[2.4349,48.81967],[2.43603,48.81959],[2.43744,48.81911],[2.43733,48.81818],[2.43985,48.81829],[2.44233,48.8179],[2.44779,48.81797],[2.44967,48.81789],[2.45328,48.81717],[2.45872,48.81703],[2.46121,48.81836],[2.46335,48.81708],[2.4655,48.81634],[2.4594,48.81269],[2.45818,48.81364],[2.45733,48.81301],[2.45545,48.81394],[2.4545,48.81334]]],"type":"Polygon"},"properties":{"code":"94069","nom":"Saint-Maurice","obs":13.0,"att":12.5,"ratio":1.04,"ic_bas":0.55,"ic_haut":1.78,"signif":"ns","exces":4.0,"pop80":744.0,"pauv":11.1}},{"type":"Feature","geometry":{"coordinates":[[[2.57702,48.755],[2.57547,48.75233],[2.5709,48.75183],[2.5702,48.75124],[2.56845,48.75144],[2.56085,48.75307],[2.55901,48.75414],[2.5573,48.7546],[2.53895,48.75539],[2.53724,48.75448],[2.52649,48.75617],[2.52287,48.75752],[2.51669,48.76135],[2.5138,48.76094],[2.51053,48.76113],[2.50735,48.76172],[2.50596,48.76159],[2.50547,48.76111],[2.49976,48.76312],[2.4996,48.76298],[2.49688,48.7646],[2.4947,48.76426],[2.49395,48.76669],[2.49411,48.76789],[2.49522,48.76782],[2.49545,48.76923],[2.49755,48.76908],[2.4979,48.7727],[2.49744,48.77307],[2.49798,48.77566],[2.50243,48.77701],[2.50234,48.77853],[2.50402,48.77851],[2.50566,48.77929],[2.50632,48.77999],[2.50743,48.78021],[2.50927,48.78104],[2.51206,48.78192],[2.51365,48.783],[2.51356,48.78391],[2.51218,48.7839],[2.51245,48.78479],[2.51423,48.78588],[2.517,48.78638],[2.51793,48.78546],[2.51638,48.78427],[2.51541,48.78382],[2.51508,48.78324],[2.51225,48.78092],[2.51974,48.78088],[2.5226,48.7796],[2.52026,48.77677],[2.52215,48.77694],[2.52372,48.77674],[2.52672,48.77706],[2.52759,48.77812],[2.52965,48.77803],[2.52941,48.7775],[2.53059,48.77684],[2.53545,48.77704],[2.5368,48.77326],[2.53909,48.77207],[2.54056,48.77068],[2.54049,48.76906],[2.53968,48.7681],[2.53942,48.7673],[2.54018,48.76597],[2.5421,48.76535],[2.54329,48.76521],[2.55035,48.76554],[2.55676,48.76428],[2.55926,48.76612],[2.55996,48.76575],[2.56172,48.76354],[2.56319,48.76356],[2.56805,48.76729],[2.56974,48.76635],[2.57351,48.76784],[2.57605,48.76854],[2.57745,48.76772],[2.5773,48.76673],[2.57676,48.76611],[2.58079,48.76496],[2.57697,48.76097],[2.57626,48.75991],[2.57313,48.76082],[2.57021,48.76101],[2.56993,48.76067],[2.5729,48.75814],[2.57199,48.75722],[2.57702,48.755]]],"type":"Polygon"},"properties":{"code":"94071","nom":"Sucy-en-Brie","obs":20.0,"att":22.4,"ratio":0.89,"ic_bas":0.55,"ic_haut":1.38,"signif":"ns","exces":-11.0,"pop80":1574.0,"pauv":10.6}},{"type":"Feature","geometry":{"coordinates":[[[2.55344,48.72233],[2.55198,48.71958],[2.55341,48.71941],[2.55699,48.71813],[2.55556,48.71661],[2.554,48.71542],[2.55324,48.71579],[2.55321,48.71643],[2.55171,48.71584],[2.55009,48.71494],[2.55043,48.71461],[2.54852,48.7119],[2.54545,48.71234],[2.54529,48.71184],[2.54153,48.71185],[2.53917,48.71104],[2.53647,48.70956],[2.53438,48.70971],[2.53398,48.70919],[2.53342,48.70699],[2.53265,48.70541],[2.52904,48.70631],[2.52931,48.70798],[2.52652,48.70801],[2.52641,48.70961],[2.52436,48.70993],[2.52256,48.7099],[2.52148,48.71233],[2.51913,48.71205],[2.5191,48.71257],[2.52089,48.71285],[2.51884,48.71484],[2.51799,48.71516],[2.5182,48.71603],[2.51752,48.71713],[2.51592,48.72691],[2.51576,48.7291],[2.50856,48.73631],[2.50862,48.73694],[2.51497,48.73882],[2.51624,48.73825],[2.51693,48.73853],[2.5204,48.7344],[2.52245,48.73212],[2.53082,48.72739],[2.53652,48.72817],[2.53706,48.72743],[2.53687,48.72633],[2.53884,48.72613],[2.54352,48.72532],[2.54427,48.72545],[2.54888,48.7254],[2.54922,48.7258],[2.55344,48.72233]]],"type":"Polygon"},"properties":{"code":"94075","nom":"Villecresnes","obs":13.0,"att":11.8,"ratio":1.1,"ic_bas":0.59,"ic_haut":1.88,"signif":"ns","exces":10.0,"pop80":634.0,"pauv":8.1}},{"type":"Feature","geometry":{"coordinates":[[[2.3712,48.80403],[2.37307,48.80252],[2.36991,48.80079],[2.37093,48.79973],[2.36982,48.79918],[2.37197,48.79716],[2.37029,48.79654],[2.37191,48.79416],[2.37253,48.79289],[2.37384,48.79154],[2.37479,48.79013],[2.37421,48.79003],[2.37687,48.78664],[2.37461,48.78564],[2.37172,48.78348],[2.3695,48.7824],[2.37092,48.7807],[2.36738,48.77943],[2.36726,48.78089],[2.36477,48.78046],[2.35808,48.7787],[2.35786,48.77921],[2.35489,48.77876],[2.35304,48.78028],[2.35261,48.78101],[2.35054,48.78101],[2.34966,48.78181],[2.34754,48.78217],[2.34816,48.78397],[2.34783,48.78491],[2.34467,48.78546],[2.34625,48.78961],[2.34422,48.79073],[2.34496,48.79428],[2.34473,48.79608],[2.34381,48.79766],[2.34523,48.7969],[2.34525,48.79777],[2.34703,48.79828],[2.34773,48.79902],[2.34606,48.79963],[2.34781,48.80153],[2.34851,48.80108],[2.35109,48.80198],[2.3508,48.80227],[2.353,48.80318],[2.35408,48.80239],[2.35547,48.80318],[2.35676,48.80346],[2.35962,48.80302],[2.35867,48.80401],[2.35805,48.80602],[2.36137,48.80742],[2.36211,48.80685],[2.36552,48.80761],[2.36715,48.80809],[2.3712,48.80403]]],"type":"Polygon"},"properties":{"code":"94076","nom":"Villejuif","obs":37.0,"att":33.1,"ratio":1.12,"ic_bas":0.79,"ic_haut":1.54,"signif":"ns","exces":12.0,"pop80":2404.0,"pauv":21.6}},{"type":"Feature","geometry":{"coordinates":[[[2.37076,48.72003],[2.37022,48.72792],[2.37584,48.72757],[2.37962,48.72808],[2.37978,48.7293],[2.38228,48.72923],[2.38234,48.72971],[2.38498,48.72987],[2.38511,48.73266],[2.38779,48.73273],[2.38791,48.73434],[2.38921,48.73446],[2.38904,48.7363],[2.38838,48.737],[2.39119,48.73732],[2.39112,48.7376],[2.39528,48.73738],[2.39944,48.73739],[2.40275,48.73799],[2.40211,48.73885],[2.40453,48.73977],[2.40572,48.74086],[2.40744,48.74161],[2.40707,48.74227],[2.40872,48.74221],[2.41478,48.74364],[2.4151,48.74302],[2.41905,48.74366],[2.41881,48.74437],[2.42105,48.74468],[2.42182,48.74328],[2.42369,48.74375],[2.42434,48.7427],[2.42815,48.74351],[2.42873,48.74343],[2.43285,48.74414],[2.43659,48.7451],[2.44032,48.74063],[2.44373,48.73761],[2.44462,48.73604],[2.44492,48.73238],[2.44458,48.72971],[2.44397,48.72806],[2.44335,48.72706],[2.44129,48.72588],[2.43972,48.72534],[2.43501,48.72429],[2.43411,48.72665],[2.43138,48.72649],[2.43094,48.72726],[2.42919,48.72722],[2.42881,48.72795],[2.42761,48.72861],[2.42667,48.72869],[2.42603,48.72822],[2.42436,48.7292],[2.42372,48.72858],[2.42111,48.72953],[2.4202,48.72893],[2.41872,48.72897],[2.41871,48.72847],[2.41723,48.72849],[2.41718,48.72794],[2.41539,48.72793],[2.41552,48.72659],[2.41428,48.72659],[2.41089,48.72607],[2.40848,48.72602],[2.40455,48.72631],[2.40185,48.72673],[2.40105,48.72474],[2.39892,48.72482],[2.39761,48.72094],[2.39175,48.72267],[2.38997,48.72075],[2.38892,48.72111],[2.38837,48.72051],[2.38668,48.72103],[2.38514,48.71899],[2.37745,48.72071],[2.37659,48.71945],[2.37497,48.71974],[2.37076,48.72003]]],"type":"Polygon"},"properties":{"code":"94077","nom":"Villeneuve-le-Roi","obs":11.0,"att":14.2,"ratio":0.78,"ic_bas":0.39,"ic_haut":1.39,"signif":"ns","exces":-22.0,"pop80":925.0,"pauv":17.4}},{"type":"Feature","geometry":{"coordinates":[[[2.44295,48.72063],[2.4424,48.72168],[2.44342,48.72284],[2.44357,48.72441],[2.44193,48.72387],[2.4407,48.72419],[2.43972,48.72534],[2.44129,48.72588],[2.44335,48.72706],[2.44397,48.72806],[2.44458,48.72971],[2.44492,48.73238],[2.44462,48.73604],[2.44373,48.73761],[2.44032,48.74063],[2.43659,48.7451],[2.43505,48.74655],[2.43275,48.74812],[2.42748,48.75094],[2.42853,48.75153],[2.42857,48.75258],[2.42782,48.75346],[2.42716,48.75494],[2.42579,48.75646],[2.42569,48.75713],[2.4285,48.75814],[2.42664,48.76052],[2.43415,48.76339],[2.4369,48.76239],[2.44142,48.76124],[2.4423,48.7618],[2.44472,48.76298],[2.44712,48.76208],[2.44854,48.76093],[2.44908,48.76111],[2.45044,48.75973],[2.45179,48.75803],[2.45344,48.75551],[2.45366,48.75441],[2.45445,48.75231],[2.45376,48.7519],[2.4533,48.74906],[2.45691,48.7484],[2.46019,48.74803],[2.46204,48.74727],[2.46091,48.74625],[2.4594,48.74452],[2.45902,48.74317],[2.45767,48.74143],[2.45707,48.74014],[2.46029,48.73868],[2.4623,48.73752],[2.46319,48.73871],[2.46436,48.74093],[2.46579,48.74193],[2.4682,48.73956],[2.46848,48.73972],[2.47064,48.73789],[2.47192,48.73862],[2.47192,48.73605],[2.47291,48.73351],[2.47227,48.73183],[2.47282,48.73087],[2.4728,48.72764],[2.47156,48.72753],[2.4705,48.7271],[2.46835,48.72663],[2.46764,48.72667],[2.46767,48.7282],[2.46676,48.7296],[2.46583,48.7295],[2.46493,48.72841],[2.4649,48.72715],[2.46333,48.72689],[2.46283,48.72626],[2.4603,48.72597],[2.45992,48.72383],[2.45628,48.72401],[2.45417,48.72466],[2.45339,48.7235],[2.45246,48.72366],[2.4518,48.7231],[2.45303,48.72265],[2.45659,48.72203],[2.45623,48.72123],[2.45457,48.72161],[2.45417,48.72046],[2.4521,48.72077],[2.4525,48.7213],[2.45154,48.72179],[2.45061,48.72129],[2.44846,48.72321],[2.44808,48.72306],[2.44851,48.72181],[2.44783,48.72009],[2.44849,48.71865],[2.44809,48.71779],[2.44937,48.71723],[2.44947,48.71667],[2.45065,48.71588],[2.45028,48.71518],[2.45115,48.7149],[2.45097,48.71436],[2.44881,48.71481],[2.44634,48.71682],[2.44515,48.71816],[2.44344,48.72074],[2.44295,48.72063]]],"type":"Polygon"},"properties":{"code":"94078","nom":"Villeneuve-Saint-Georges","obs":21.0,"att":14.0,"ratio":1.5,"ic_bas":0.93,"ic_haut":2.3,"signif":"ns","exces":50.0,"pop80":1072.0,"pauv":34.4}},{"type":"Feature","geometry":{"coordinates":[[[2.52412,48.82709],[2.52546,48.82726],[2.52649,48.82889],[2.5319,48.82924],[2.53363,48.83174],[2.53382,48.83261],[2.53524,48.83435],[2.53354,48.83563],[2.53649,48.83733],[2.5357,48.83827],[2.53667,48.83854],[2.53807,48.83688],[2.54414,48.83501],[2.54732,48.83611],[2.54738,48.83415],[2.54916,48.83508],[2.55274,48.83237],[2.55338,48.83267],[2.55541,48.83106],[2.55677,48.83164],[2.55813,48.83004],[2.56055,48.82895],[2.56131,48.82654],[2.56738,48.82474],[2.56917,48.82408],[2.57242,48.82359],[2.571,48.82262],[2.56872,48.81796],[2.56729,48.81941],[2.56511,48.82033],[2.56382,48.82056],[2.56245,48.82143],[2.55968,48.82277],[2.55605,48.82091],[2.5579,48.8194],[2.55737,48.81877],[2.55579,48.81888],[2.55446,48.81821],[2.55337,48.81852],[2.55016,48.81866],[2.5486,48.81974],[2.54715,48.81992],[2.54491,48.81982],[2.54357,48.8195],[2.54264,48.81896],[2.54145,48.81888],[2.54028,48.8183],[2.53476,48.81708],[2.53448,48.81832],[2.5333,48.81837],[2.53203,48.82],[2.52957,48.82126],[2.52563,48.82114],[2.52497,48.82143],[2.52575,48.82297],[2.52593,48.82403],[2.52548,48.82479],[2.52407,48.82523],[2.52412,48.82709]]],"type":"Polygon"},"properties":{"code":"94079","nom":"Villiers-sur-Marne","obs":29.0,"att":19.4,"ratio":1.49,"ic_bas":1.0,"ic_haut":2.14,"signif":"ns","exces":49.0,"pop80":1373.0,"pauv":17.3}},{"type":"Feature","geometry":{"coordinates":[[[2.3712,48.80403],[2.37579,48.80601],[2.37929,48.80145],[2.38291,48.80341],[2.38565,48.80432],[2.38689,48.80037],[2.38861,48.80045],[2.38999,48.80011],[2.39174,48.7993],[2.39271,48.80044],[2.3936,48.80057],[2.39462,48.79992],[2.39743,48.80242],[2.39843,48.80181],[2.39947,48.80373],[2.40065,48.80403],[2.40437,48.80449],[2.40522,48.80479],[2.40415,48.80812],[2.40901,48.80852],[2.40892,48.80754],[2.40931,48.80607],[2.41005,48.80474],[2.41101,48.80374],[2.41559,48.79981],[2.41884,48.79734],[2.42074,48.79569],[2.42162,48.79448],[2.42248,48.79268],[2.42283,48.7911],[2.42267,48.78954],[2.42202,48.78791],[2.41968,48.78413],[2.41733,48.78073],[2.41469,48.77723],[2.41253,48.77547],[2.41187,48.77424],[2.40576,48.77385],[2.40581,48.77359],[2.40202,48.77296],[2.40033,48.77508],[2.3987,48.77481],[2.39425,48.77387],[2.39235,48.77336],[2.39255,48.77236],[2.3886,48.77189],[2.3881,48.77321],[2.38362,48.77226],[2.38188,48.77177],[2.38086,48.77207],[2.37913,48.7731],[2.37653,48.77151],[2.37618,48.77076],[2.3743,48.77184],[2.37107,48.77001],[2.36838,48.77214],[2.36778,48.7719],[2.36738,48.77943],[2.37092,48.7807],[2.3695,48.7824],[2.37172,48.78348],[2.37461,48.78564],[2.37687,48.78664],[2.37421,48.79003],[2.37479,48.79013],[2.37384,48.79154],[2.37253,48.79289],[2.37191,48.79416],[2.37029,48.79654],[2.37197,48.79716],[2.36982,48.79918],[2.37093,48.79973],[2.36991,48.80079],[2.37307,48.80252],[2.3712,48.80403]]],"type":"Polygon"},"properties":{"code":"94081","nom":"Vitry-sur-Seine","obs":55.0,"att":42.2,"ratio":1.3,"ic_bas":0.98,"ic_haut":1.7,"signif":"ns","exces":30.0,"pop80":3535.0,"pauv":25.5}},{"type":"Feature","geometry":{"coordinates":[[[2.4735,48.76173],[2.47212,48.76328],[2.46818,48.76237],[2.46743,48.76416],[2.46621,48.76613],[2.46336,48.76679],[2.46128,48.76589],[2.45998,48.76572],[2.45957,48.76668],[2.45708,48.76635],[2.45548,48.76679],[2.45371,48.76753],[2.45186,48.76851],[2.44928,48.77015],[2.44081,48.77181],[2.43916,48.7712],[2.43532,48.76742],[2.43549,48.76724],[2.43359,48.76683],[2.43197,48.76679],[2.43195,48.76751],[2.43072,48.7693],[2.43053,48.77064],[2.43232,48.77102],[2.43249,48.77231],[2.42754,48.77083],[2.42729,48.77231],[2.42825,48.7761],[2.42883,48.78018],[2.43004,48.78038],[2.43001,48.78231],[2.43092,48.78254],[2.43297,48.78374],[2.43392,48.78395],[2.43283,48.78662],[2.43603,48.787],[2.43571,48.78824],[2.43908,48.78919],[2.43809,48.79079],[2.43677,48.79234],[2.44091,48.79352],[2.43984,48.79529],[2.44239,48.79591],[2.44397,48.79809],[2.44544,48.79971],[2.44576,48.80081],[2.44735,48.80226],[2.44697,48.80245],[2.44865,48.80382],[2.44994,48.80301],[2.45455,48.80596],[2.45672,48.8055],[2.45746,48.80511],[2.46032,48.80631],[2.46066,48.80606],[2.46401,48.80735],[2.46695,48.80526],[2.46812,48.80457],[2.46894,48.80206],[2.4701,48.79957],[2.47179,48.79431],[2.47188,48.79167],[2.47238,48.79049],[2.47463,48.78767],[2.47291,48.78721],[2.47388,48.78595],[2.47447,48.78371],[2.4759,48.78268],[2.47691,48.78101],[2.47616,48.78059],[2.47537,48.78142],[2.4726,48.77992],[2.47496,48.77765],[2.47276,48.7765],[2.4746,48.77458],[2.47157,48.77292],[2.47232,48.77184],[2.47202,48.77145],[2.47348,48.77009],[2.47401,48.77026],[2.47737,48.76612],[2.4749,48.76537],[2.47582,48.76395],[2.47715,48.76276],[2.4735,48.76173]]],"type":"Polygon"},"properties":{"code":"94028","nom":"Créteil","obs":43.0,"att":47.0,"ratio":0.92,"ic_bas":0.66,"ic_haut":1.23,"signif":"ns","exces":-8.0,"pop80":3436.0,"pauv":21.3}},{"type":"Feature","geometry":{"coordinates":[[[2.44714,48.85116],[2.44882,48.85346],[2.45238,48.85494],[2.45397,48.8554],[2.45758,48.85593],[2.46144,48.85612],[2.46741,48.85663],[2.46695,48.85844],[2.46713,48.85933],[2.46675,48.86008],[2.4679,48.86055],[2.46944,48.86077],[2.47321,48.8602],[2.47526,48.8602],[2.47636,48.86048],[2.4784,48.8601],[2.48081,48.86005],[2.48159,48.86149],[2.4868,48.86067],[2.4887,48.86057],[2.49102,48.8608],[2.49158,48.85955],[2.49417,48.86056],[2.4944,48.86022],[2.49611,48.86066],[2.49711,48.85919],[2.49489,48.85881],[2.49682,48.85569],[2.49931,48.85655],[2.5,48.85574],[2.4973,48.85499],[2.49577,48.85281],[2.49329,48.85169],[2.49362,48.85067],[2.4935,48.84873],[2.4914,48.84829],[2.49158,48.84778],[2.48717,48.84599],[2.48651,48.84537],[2.48648,48.84451],[2.48558,48.84428],[2.48583,48.84339],[2.48413,48.8431],[2.4832,48.84237],[2.48191,48.84238],[2.47987,48.84191],[2.47924,48.8435],[2.4768,48.84275],[2.47602,48.84118],[2.47316,48.84006],[2.47258,48.84063],[2.47222,48.84205],[2.46871,48.8409],[2.46955,48.84],[2.46732,48.8391],[2.46526,48.84117],[2.46374,48.84202],[2.46179,48.84273],[2.45784,48.84355],[2.44785,48.84486],[2.44795,48.84679],[2.45148,48.84636],[2.45785,48.84524],[2.45794,48.84568],[2.4563,48.84651],[2.45593,48.84731],[2.4563,48.84956],[2.44991,48.85097],[2.44953,48.85058],[2.44714,48.85116]]],"type":"Polygon"},"properties":{"code":"94033","nom":"Fontenay-sous-Bois","obs":35.0,"att":37.0,"ratio":0.95,"ic_bas":0.66,"ic_haut":1.32,"signif":"ns","exces":-5.0,"pop80":2302.0,"pauv":14.8}},{"type":"Feature","geometry":{"coordinates":[[[2.4423,48.7618],[2.44217,48.76223],[2.44004,48.76276],[2.43851,48.76364],[2.43983,48.76469],[2.43708,48.76637],[2.43608,48.76666],[2.43532,48.76742],[2.43916,48.7712],[2.44081,48.77181],[2.44928,48.77015],[2.45186,48.76851],[2.45371,48.76753],[2.45548,48.76679],[2.45708,48.76635],[2.45957,48.76668],[2.45998,48.76572],[2.46128,48.76589],[2.46336,48.76679],[2.46621,48.76613],[2.46743,48.76416],[2.46818,48.76237],[2.4688,48.76007],[2.46861,48.75625],[2.4678,48.75131],[2.47253,48.7525],[2.47363,48.74841],[2.4734,48.74516],[2.47349,48.74455],[2.47603,48.74096],[2.47341,48.73971],[2.47544,48.73835],[2.47777,48.73579],[2.47991,48.73494],[2.48098,48.73418],[2.48238,48.73281],[2.48301,48.73146],[2.48463,48.72925],[2.48006,48.72801],[2.47532,48.72772],[2.4728,48.72764],[2.47282,48.73087],[2.47227,48.73183],[2.47291,48.73351],[2.47192,48.73605],[2.47192,48.73862],[2.47064,48.73789],[2.46848,48.73972],[2.4682,48.73956],[2.46579,48.74193],[2.46436,48.74093],[2.46319,48.73871],[2.4623,48.73752],[2.46029,48.73868],[2.45707,48.74014],[2.45767,48.74143],[2.45902,48.74317],[2.4594,48.74452],[2.46091,48.74625],[2.46204,48.74727],[2.46019,48.74803],[2.45691,48.7484],[2.4533,48.74906],[2.45376,48.7519],[2.45445,48.75231],[2.45366,48.75441],[2.45344,48.75551],[2.45179,48.75803],[2.45044,48.75973],[2.44908,48.76111],[2.44854,48.76093],[2.44712,48.76208],[2.44472,48.76298],[2.4423,48.7618]]],"type":"Polygon"},"properties":{"code":"94074","nom":"Valenton","obs":4.0,"att":6.9,"ratio":0.58,"ic_bas":0.16,"ic_haut":1.48,"signif":"ns","exces":-42.0,"pop80":514.0,"pauv":31.0}},{"type":"Feature","geometry":{"coordinates":[[[2.44785,48.84486],[2.4465,48.84497],[2.44665,48.8458],[2.44076,48.84596],[2.44052,48.84444],[2.43796,48.84466],[2.43718,48.84089],[2.43367,48.8412],[2.43354,48.84105],[2.42758,48.84157],[2.42832,48.84517],[2.42822,48.84554],[2.41863,48.84639],[2.419,48.84939],[2.42931,48.84875],[2.42958,48.85106],[2.43155,48.85093],[2.43262,48.85114],[2.43458,48.85083],[2.43523,48.85336],[2.43734,48.85282],[2.43877,48.85303],[2.44266,48.85287],[2.44329,48.85258],[2.44247,48.8519],[2.44476,48.85176],[2.44953,48.85058],[2.44991,48.85097],[2.4563,48.84956],[2.45593,48.84731],[2.4563,48.84651],[2.45794,48.84568],[2.45785,48.84524],[2.45148,48.84636],[2.44795,48.84679],[2.44785,48.84486]]],"type":"Polygon"},"properties":{"code":"94080","nom":"Vincennes","obs":31.0,"att":37.1,"ratio":0.84,"ic_bas":0.57,"ic_haut":1.19,"signif":"ns","exces":-16.0,"pop80":2633.0,"pauv":8.4}},{"type":"Feature","geometry":{"coordinates":[[[2.47569,48.83056],[2.4732,48.82991],[2.4714,48.829],[2.46948,48.83007],[2.46781,48.82849],[2.4669,48.82718],[2.46669,48.82614],[2.46573,48.82623],[2.46618,48.82733],[2.46466,48.82762],[2.4647,48.82928],[2.46563,48.83163],[2.46694,48.83275],[2.46862,48.83359],[2.4695,48.83447],[2.46983,48.8358],[2.46947,48.83705],[2.46732,48.8391],[2.46955,48.84],[2.46871,48.8409],[2.47222,48.84205],[2.47258,48.84063],[2.47316,48.84006],[2.47602,48.84118],[2.4768,48.84275],[2.47924,48.8435],[2.47987,48.84191],[2.48191,48.84238],[2.4832,48.84237],[2.48413,48.8431],[2.48583,48.84339],[2.48558,48.84428],[2.48648,48.84451],[2.48651,48.84537],[2.48717,48.84599],[2.49158,48.84778],[2.4931,48.84376],[2.49383,48.84126],[2.4945,48.83646],[2.49531,48.83437],[2.49765,48.83081],[2.4932,48.83105],[2.487,48.83107],[2.48478,48.83147],[2.48295,48.83152],[2.47761,48.8309],[2.47569,48.83056]]],"type":"Polygon"},"properties":{"code":"94052","nom":"Nogent-sur-Marne","obs":23.0,"att":28.4,"ratio":0.81,"ic_bas":0.51,"ic_haut":1.22,"signif":"ns","exces":-19.0,"pop80":1740.0,"pauv":8.5}},{"type":"Feature","geometry":{"coordinates":[[[2.56867,48.70723],[2.56992,48.70547],[2.56979,48.70522],[2.57081,48.70391],[2.56993,48.70335],[2.57255,48.70208],[2.57442,48.70071],[2.57581,48.69999],[2.58154,48.69742],[2.57885,48.69697],[2.5747,48.69606],[2.57078,48.69504],[2.57163,48.69345],[2.57176,48.692],[2.56974,48.69183],[2.56609,48.69175],[2.56591,48.691],[2.56433,48.69102],[2.56109,48.69072],[2.56124,48.68959],[2.55493,48.68848],[2.55504,48.68764],[2.55368,48.68763],[2.55392,48.68836],[2.55139,48.68854],[2.54977,48.68849],[2.54895,48.68901],[2.5506,48.6898],[2.55108,48.69043],[2.54991,48.69161],[2.54845,48.69253],[2.54624,48.69312],[2.54663,48.69391],[2.54668,48.69535],[2.54377,48.69464],[2.54292,48.6963],[2.54241,48.69678],[2.54368,48.69787],[2.54417,48.69861],[2.54586,48.69947],[2.54838,48.69893],[2.55083,48.69903],[2.5532,48.69821],[2.55485,48.69975],[2.55777,48.70164],[2.55857,48.70191],[2.56162,48.70246],[2.56465,48.70441],[2.56719,48.7066],[2.56867,48.70723]]],"type":"Polygon"},"properties":{"code":"94056","nom":"Périgny","obs":0.0,"att":1.3,"ratio":0.0,"ic_bas":0.0,"ic_haut":2.8,"signif":"ns","exces":-100.0,"pop80":67.0,"pauv":null}},{"type":"Feature","geometry":{"coordinates":[[[2.34851,48.80108],[2.34637,48.80232],[2.34387,48.80325],[2.34435,48.80452],[2.34503,48.80543],[2.34625,48.80679],[2.35069,48.81135],[2.35381,48.81303],[2.35464,48.81366],[2.35616,48.8156],[2.35623,48.81594],[2.36333,48.81615],[2.3642,48.8164],[2.36482,48.81557],[2.36454,48.81506],[2.36624,48.81194],[2.36422,48.81115],[2.36548,48.80922],[2.36794,48.80886],[2.36715,48.80809],[2.36552,48.80761],[2.36211,48.80685],[2.36137,48.80742],[2.35805,48.80602],[2.35867,48.80401],[2.35962,48.80302],[2.35676,48.80346],[2.35547,48.80318],[2.35408,48.80239],[2.353,48.80318],[2.3508,48.80227],[2.35109,48.80198],[2.34851,48.80108]]],"type":"Polygon"},"properties":{"code":"94043","nom":"Le Kremlin-Bicêtre","obs":9.0,"att":14.8,"ratio":0.61,"ic_bas":0.28,"ic_haut":1.16,"signif":"ns","exces":-39.0,"pop80":1011.0,"pauv":17.9}},{"type":"Feature","geometry":{"coordinates":[[[2.4094,48.81656],[2.40997,48.81591],[2.41027,48.81454],[2.40997,48.8125],[2.40901,48.80852],[2.40415,48.80812],[2.40522,48.80479],[2.40437,48.80449],[2.40065,48.80403],[2.39947,48.80373],[2.39843,48.80181],[2.39743,48.80242],[2.39462,48.79992],[2.3936,48.80057],[2.39271,48.80044],[2.39174,48.7993],[2.38999,48.80011],[2.38861,48.80045],[2.38689,48.80037],[2.38565,48.80432],[2.38291,48.80341],[2.37929,48.80145],[2.37579,48.80601],[2.3712,48.80403],[2.36715,48.80809],[2.36794,48.80886],[2.36548,48.80922],[2.36422,48.81115],[2.36624,48.81194],[2.36454,48.81506],[2.36482,48.81557],[2.3642,48.8164],[2.37576,48.82006],[2.38077,48.8217],[2.38152,48.82241],[2.38523,48.82373],[2.39007,48.82569],[2.39552,48.822],[2.39796,48.82069],[2.40019,48.81985],[2.40541,48.81813],[2.40812,48.81734],[2.4094,48.81656]]],"type":"Polygon"},"properties":{"code":"94041","nom":"Ivry-sur-Seine","obs":34.0,"att":33.9,"ratio":1.0,"ic_bas":0.69,"ic_haut":1.4,"signif":"ns","exces":0.0,"pop80":2067.0,"pauv":27.8}},{"type":"Feature","geometry":{"coordinates":[[[2.36934,48.74613],[2.36778,48.7719],[2.36838,48.77214],[2.37107,48.77001],[2.3743,48.77184],[2.37618,48.77076],[2.37653,48.77151],[2.37913,48.7731],[2.38086,48.77207],[2.38188,48.77177],[2.38362,48.77226],[2.3881,48.77321],[2.3886,48.77189],[2.39255,48.77236],[2.39235,48.77336],[2.39425,48.77387],[2.3987,48.77481],[2.40387,48.76691],[2.39807,48.76586],[2.40317,48.76148],[2.40359,48.76018],[2.40606,48.75108],[2.40398,48.75055],[2.39943,48.74966],[2.39904,48.7524],[2.39696,48.75199],[2.39323,48.75085],[2.39192,48.75175],[2.38872,48.75272],[2.38727,48.75285],[2.38938,48.74962],[2.38621,48.75031],[2.38566,48.74939],[2.38453,48.74967],[2.38401,48.74876],[2.38262,48.74912],[2.38206,48.7482],[2.3778,48.74929],[2.37669,48.74925],[2.3742,48.74846],[2.3745,48.74623],[2.36934,48.74613]]],"type":"Polygon"},"properties":{"code":"94073","nom":"Thiais","obs":16.0,"att":17.3,"ratio":0.93,"ic_bas":0.53,"ic_haut":1.5,"signif":"ns","exces":-8.0,"pop80":1313.0,"pauv":15.8}},{"type":"Feature","geometry":{"coordinates":[[[2.55344,48.72233],[2.54922,48.7258],[2.54888,48.7254],[2.54427,48.72545],[2.54352,48.72532],[2.53884,48.72613],[2.53687,48.72633],[2.53706,48.72743],[2.53652,48.72817],[2.53442,48.72951],[2.5446,48.73636],[2.55263,48.74682],[2.54347,48.74877],[2.54645,48.75196],[2.54913,48.75202],[2.55117,48.75],[2.55497,48.75367],[2.55727,48.75376],[2.5573,48.7546],[2.55901,48.75414],[2.56085,48.75307],[2.56845,48.75144],[2.5702,48.75124],[2.57009,48.75068],[2.56864,48.74842],[2.57341,48.74784],[2.57317,48.74702],[2.57315,48.74513],[2.5729,48.74387],[2.56819,48.74039],[2.56874,48.73856],[2.56536,48.73903],[2.5652,48.73679],[2.56486,48.73499],[2.56255,48.73536],[2.55877,48.73625],[2.55798,48.73542],[2.55678,48.73312],[2.55631,48.73117],[2.55535,48.72606],[2.55481,48.72635],[2.55344,48.72233]]],"type":"Polygon"},"properties":{"code":"94048","nom":"Marolles-en-Brie","obs":2.0,"att":2.1,"ratio":0.93,"ic_bas":0.1,"ic_haut":3.36,"signif":"ns","exces":-7.0,"pop80":103.0,"pauv":4.0}},{"type":"Feature","geometry":{"coordinates":[[[2.52684,48.70468],[2.52914,48.70527],[2.52961,48.70617],[2.53265,48.70541],[2.53342,48.70699],[2.53398,48.70919],[2.53438,48.70971],[2.53647,48.70956],[2.53917,48.71104],[2.54153,48.71185],[2.54529,48.71184],[2.54545,48.71234],[2.54852,48.7119],[2.55043,48.71461],[2.55009,48.71494],[2.55171,48.71584],[2.55321,48.71643],[2.55324,48.71579],[2.554,48.71542],[2.55558,48.71499],[2.55762,48.71417],[2.55703,48.71347],[2.55968,48.71245],[2.55881,48.71136],[2.56018,48.71076],[2.56139,48.71067],[2.56303,48.7092],[2.56409,48.70879],[2.566,48.70849],[2.56667,48.70914],[2.56779,48.709],[2.56867,48.70723],[2.56719,48.7066],[2.56465,48.70441],[2.56162,48.70246],[2.55857,48.70191],[2.55777,48.70164],[2.55485,48.69975],[2.5532,48.69821],[2.55083,48.69903],[2.54838,48.69893],[2.54586,48.69947],[2.54417,48.69861],[2.54132,48.70036],[2.53995,48.69905],[2.53767,48.69777],[2.53622,48.69728],[2.53598,48.69871],[2.53612,48.69979],[2.53569,48.70107],[2.53159,48.69992],[2.53129,48.69963],[2.52964,48.70181],[2.52852,48.70375],[2.52684,48.70468]]],"type":"Polygon"},"properties":{"code":"94047","nom":"Mandres-les-Roses","obs":8.0,"att":7.2,"ratio":1.12,"ic_bas":0.48,"ic_haut":2.2,"signif":"ns","exces":12.0,"pop80":270.0,"pauv":7.0}},{"type":"Feature","geometry":{"coordinates":[[[2.5702,48.75124],[2.5709,48.75183],[2.57547,48.75233],[2.57702,48.755],[2.58116,48.755],[2.58733,48.76396],[2.59747,48.76064],[2.59937,48.75542],[2.60163,48.75409],[2.60219,48.75357],[2.59987,48.75074],[2.59853,48.74989],[2.59807,48.7501],[2.59612,48.74718],[2.59165,48.74756],[2.58998,48.74619],[2.59055,48.74543],[2.5876,48.74421],[2.58518,48.74177],[2.58977,48.73996],[2.59146,48.73855],[2.59143,48.73754],[2.5958,48.73648],[2.5939,48.73551],[2.59475,48.73193],[2.5932,48.73204],[2.59025,48.73123],[2.58935,48.72919],[2.58801,48.72919],[2.58694,48.72809],[2.58481,48.72679],[2.58297,48.72465],[2.58233,48.72417],[2.58094,48.72191],[2.57936,48.72276],[2.57845,48.72079],[2.57743,48.72111],[2.57709,48.71969],[2.57729,48.71851],[2.57654,48.71671],[2.5754,48.71267],[2.5718,48.71354],[2.57109,48.71124],[2.56923,48.71111],[2.56874,48.71024],[2.5687,48.70897],[2.56779,48.709],[2.56667,48.70914],[2.566,48.70849],[2.56409,48.70879],[2.56303,48.7092],[2.56139,48.71067],[2.56018,48.71076],[2.55881,48.71136],[2.55968,48.71245],[2.55703,48.71347],[2.55762,48.71417],[2.55558,48.71499],[2.554,48.71542],[2.55556,48.71661],[2.55699,48.71813],[2.55341,48.71941],[2.55198,48.71958],[2.55344,48.72233],[2.55481,48.72635],[2.55535,48.72606],[2.55631,48.73117],[2.55678,48.73312],[2.55798,48.73542],[2.55877,48.73625],[2.56255,48.73536],[2.56486,48.73499],[2.5652,48.73679],[2.56536,48.73903],[2.56874,48.73856],[2.56819,48.74039],[2.5729,48.74387],[2.57315,48.74513],[2.57317,48.74702],[2.57341,48.74784],[2.56864,48.74842],[2.57009,48.75068],[2.5702,48.75124]]],"type":"Polygon"},"properties":{"code":"94070","nom":"Santeny","obs":3.0,"att":3.8,"ratio":0.79,"ic_bas":0.16,"ic_haut":2.3,"signif":"ns","exces":-21.0,"pop80":254.0,"pauv":null}},{"type":"Feature","geometry":{"coordinates":[[[2.43501,48.72429],[2.4278,48.72322],[2.42332,48.72208],[2.41993,48.72078],[2.41444,48.71773],[2.41322,48.71864],[2.41485,48.71988],[2.41582,48.72089],[2.41503,48.721],[2.41233,48.72197],[2.41206,48.72149],[2.41071,48.72199],[2.4112,48.7229],[2.41089,48.72607],[2.41428,48.72659],[2.41552,48.72659],[2.41539,48.72793],[2.41718,48.72794],[2.41723,48.72849],[2.41871,48.72847],[2.41872,48.72897],[2.4202,48.72893],[2.42111,48.72953],[2.42372,48.72858],[2.42436,48.7292],[2.42603,48.72822],[2.42667,48.72869],[2.42761,48.72861],[2.42881,48.72795],[2.42919,48.72722],[2.43094,48.72726],[2.43138,48.72649],[2.43411,48.72665],[2.43501,48.72429]]],"type":"Polygon"},"properties":{"code":"94001","nom":"Ablon-sur-Seine","obs":7.0,"att":5.5,"ratio":1.28,"ic_bas":0.51,"ic_haut":2.63,"signif":"ns","exces":28.0,"pop80":288.0,"pauv":17.0}}]}